NORAD_CAT_ID,OBJECT_NAME,OBJECT_TYPE,EPOCH,MEAN_MOTION,ECCENTRICITY,INCLINATION,RA_OF_ASC_NODE,ARG_OF_PERICENTER,MEAN_ANOMALY,BSTAR,MEAN_MOTION_DOT,MEAN_MOTION_DDOT,TLE_LINE0,TLE_LINE1,TLE_LINE2,SEMIMAJOR_AXIS,PERIOD,APOGEE,PERIGEE,DECAYED
50163.0,STARLINK-3306,PAYLOAD,2024-06-23 09:01:47,15.08840942,0.000135,53.2171,161.7638,96.6667,263.4479,2.917e-05,1.76e-06,0.0,0 STARLINK-3306,1 50163U 21125H   24175.37624768  .00000176  00000-0  29170-4 0  9995,2 50163  53.2171 161.7638 0001350  96.6667 263.4479 15.08840942142482,6917.878,95.437,540.676,538.809,0.0
50163.0,STARLINK-3306,PAYLOAD,2024-06-24 04:06:25,15.08838035,0.0001325,53.2171,158.1953,98.4407,261.6735,4.0336e-05,3.54e-06,0.0,0 STARLINK-3306,1 50163U 21125H   24176.17112886  .00000354  00000-0  40336-4 0  9992,2 50163  53.2171 158.1953 0001325  98.4407 261.6735 15.08838035142122,6917.886,95.438,540.668,538.835,0.0
50163.0,STARLINK-3306,PAYLOAD,2024-06-24 08:52:34,15.08838225,0.0001326,53.2171,157.3033,98.0459,262.0684,3.9565e-05,3.42e-06,0.0,0 STARLINK-3306,1 50163U 21125H   24176.36984898  .00000342  00000-0  39565-4 0  9992,2 50163  53.2171 157.3033 0001326  98.0459 262.0684 15.08838225142631,6917.886,95.438,540.668,538.834,0.0
50163.0,STARLINK-3306,PAYLOAD,2024-06-25 05:32:36,15.08836369,0.000135,53.2172,153.4374,98.8581,261.2564,1.2665e-05,-8.6e-07,0.0,0 STARLINK-3306,1 50163U 21125H   24177.23097244 -.00000086  00000-0  12665-4 0  9997,2 50163  53.2172 153.4374 0001350  98.8581 261.2564 15.08836369142284,6917.891,95.438,540.69,538.823,0.0
50163.0,STARLINK-3306,PAYLOAD,2024-06-26 03:47:59,15.08837049,0.0001323,53.2169,149.2737,92.4085,267.7059,3.6881e-05,2.99e-06,0.0,0 STARLINK-3306,1 50163U 21125H   24178.15833312  .00000299  00000-0  36881-4 0  9994,2 50163  53.2169 149.2737 0001323  92.4085 267.7059 15.08837049142900,6917.889,95.438,540.67,538.839,0.0
50163.0,STARLINK-3306,PAYLOAD,2024-06-27 03:38:47,15.08836607,0.0001283,53.2168,144.8142,83.0805,277.0333,4.0719e-05,3.6e-06,0.0,0 STARLINK-3306,1 50163U 21125H   24179.15193686  .00000360  00000-0  40719-4 0  9992,2 50163  53.2168 144.8142 0001283  83.0805 277.0333 15.08836607142572,6917.891,95.438,540.643,538.868,0.0
50163.0,STARLINK-3306,PAYLOAD,2024-06-27 14:46:28,15.08842988,0.0001324,53.2173,142.7333,86.6279,273.4864,8.5983e-05,1.081e-05,0.0,0 STARLINK-3306,1 50163U 21125H   24179.61561177  .00001081  00000-0  85983-4 0  9990,2 50163  53.2173 142.7333 0001324  86.6279 273.4864 15.08842988142643,6917.871,95.437,540.652,538.82,0.0
50163.0,STARLINK-3306,PAYLOAD,2024-06-28 05:04:57,15.0883769,0.000131,53.216,140.0586,85.0322,275.082,4.8079e-05,4.77e-06,0.0,0 STARLINK-3306,1 50163U 21125H   24180.21177786  .00000477  00000-0  48079-4 0  9990,2 50163  53.2160 140.0586 0001310  85.0322 275.0820 15.08837690142731,6917.887,95.438,540.659,538.846,0.0
50163.0,STARLINK-3306,PAYLOAD,2024-06-28 14:37:15,15.08847926,0.0001172,53.2168,138.271,92.2136,267.899,0.00014705,2.054e-05,0.0,0 STARLINK-3306,1 50163U 21125H   24180.60920732  .00002054  00000-0  14705-3 0  9991,2 50163  53.2168 138.2710 0001172  92.2136 267.8990 15.08847926143276,6917.856,95.437,540.532,538.91,0.0
50163.0,STARLINK-3306,PAYLOAD,2024-06-29 03:20:21,15.08839035,0.0001202,53.2159,135.8925,88.5975,271.5154,-7.8088e-06,-4.12e-06,0.0,0 STARLINK-3306,1 50163U 21125H   24181.13913771 -.00000412  00000-0 -78088-5 0  9999,2 50163  53.2159 135.8925 0001202  88.5975 271.5154 15.08839035142871,6917.883,95.438,540.58,538.917,0.0
50163.0,STARLINK-3306,PAYLOAD,2024-06-29 14:28:02,15.08849741,0.000151,53.2182,133.8103,92.3764,267.7401,8.8313e-05,1.118e-05,0.0,0 STARLINK-3306,1 50163U 21125H   24181.60280825  .00001118  00000-0  88313-4 0  9991,2 50163  53.2182 133.8103 0001510  92.3764 267.7401 15.08849741143423,6917.851,95.437,540.76,538.671,0.0
50163.0,STARLINK-3306,PAYLOAD,2024-06-30 03:11:09,15.08829134,0.0001485,53.2166,131.4313,103.7631,256.3527,3.4051e-05,2.54e-06,0.0,0 STARLINK-3306,1 50163U 21125H   24182.13274543  .00000254  00000-0  34051-4 0  9990,2 50163  53.2166 131.4313 0001485 103.7631 256.3527 15.08829134143026,6917.914,95.438,540.806,538.751,0.0
50163.0,STARLINK-3306,PAYLOAD,2024-06-30 06:21:55,15.088363,0.0001404,53.2175,130.8364,104.0499,256.0649,-4.6892e-05,-1.034e-05,0.0,0 STARLINK-3306,1 50163U 21125H   24182.26522268 -.00001034  00000-0 -46892-4 0  9999,2 50163  53.2175 130.8364 0001404 104.0499 256.0649 15.08836300143522,6917.892,95.438,540.728,538.785,0.0
50163.0,STARLINK-3306,PAYLOAD,2024-07-01 03:01:55,15.08838524,0.0001466,53.2173,126.9734,94.1649,265.9511,0.00011885,1.604e-05,0.0,0 STARLINK-3306,1 50163U 21125H   24183.12633975  .00001604  00000-0  11885-3 0  9997,2 50163  53.2173 126.9734 0001466  94.1649 265.9511 15.08838524143179,6917.885,95.438,540.764,538.736,0.0
50163.0,STARLINK-3306,PAYLOAD,2024-07-01 06:12:41,15.08846546,0.0001311,53.217,126.3784,101.5033,258.6106,8.1642e-05,1.012e-05,0.0,0 STARLINK-3306,1 50163U 21125H   24183.25881556  .00001012  00000-0  81642-4 0  9993,2 50163  53.2170 126.3784 0001311 101.5033 258.6106 15.08846546143671,6917.86,95.437,540.632,538.818,0.0
50163.0,STARLINK-3306,PAYLOAD,2024-07-02 02:52:43,15.088363,0.0001227,53.2159,122.5142,89.4694,270.6438,0.00018469,2.652e-05,0.0,0 STARLINK-3306,1 50163U 21125H   24184.11994413  .00002652  00000-0  18469-3 0  9993,2 50163  53.2159 122.5142 0001227  89.4694 270.6438 15.08836300143328,6917.892,95.438,540.606,538.908,0.0
50163.0,STARLINK-3306,PAYLOAD,2024-07-02 12:25:01,15.08844165,0.0001387,53.2169,120.7294,91.8156,268.2995,0.00014778,2.065e-05,0.0,0 STARLINK-3306,1 50163U 21125H   24184.51737808  .00002065  00000-0  14778-3 0  9997,2 50163  53.2169 120.7294 0001387  91.8156 268.2995 15.08844165143389,6917.868,95.437,540.692,538.773,0.0
50163.0,STARLINK-3306,PAYLOAD,2024-07-02 20:21:57,15.08830522,0.0001333,53.2155,119.2416,97.0885,263.0259,-0.00014249,-2.554e-05,0.0,0 STARLINK-3306,1 50163U 21125H   24184.84858604 -.00002554  00000-0 -14249-3 0  9999,2 50163  53.2155 119.2416 0001333  97.0885 263.0259 15.08830522143435,6917.909,95.438,540.697,538.852,0.0
50163.0,STARLINK-3306,PAYLOAD,2024-07-03 02:43:30,15.08841967,0.0001035,53.2171,118.0559,100.1112,259.9997,4.4253e-05,4.17e-06,0.0,0 STARLINK-3306,1 50163U 21125H   24185.11354383  .00000417  00000-0  44253-4 0  9998,2 50163  53.2171 118.0559 0001035 100.1112 259.9997 15.08841967143478,6917.874,95.437,540.455,539.023,0.0
50163.0,STARLINK-3306,PAYLOAD,2024-07-03 12:15:47,15.08863728,0.0001174,53.2178,116.2698,90.0848,270.0279,0.00017874,2.56e-05,0.0,0 STARLINK-3306,1 50163U 21125H   24185.51096156  .00002560  00000-0  17874-3 0  9992,2 50163  53.2178 116.2698 0001174  90.0848 270.0279 15.08863728143539,6917.808,95.436,540.485,538.861,0.0
50163.0,STARLINK-3306,PAYLOAD,2024-07-04 04:09:40,15.08845878,0.000128,53.2185,113.2985,86.8526,273.2612,-0.00019142,-3.334e-05,0.0,0 STARLINK-3306,1 50163U 21125H   24186.17338651 -.00003334  00000-0 -19142-3 0  9996,2 50163  53.2185 113.2985 0001280  86.8526 273.2612 15.08845878143630,6917.862,95.437,540.613,538.842,0.0
50163.0,STARLINK-3306,PAYLOAD,2024-07-04 12:06:36,15.08834343,0.0001048,53.2179,111.8098,69.6681,290.4423,0.00025318,3.743e-05,0.0,0 STARLINK-3306,1 50163U 21125H   24186.50458518  .00003743  00000-0  25318-3 0  9992,2 50163  53.2179 111.8098 0001048  69.6681 290.4423 15.08834343144160,6917.898,95.438,540.488,539.038,0.0
50163.0,STARLINK-3306,PAYLOAD,2024-07-05 11:57:22,15.08851781,0.0001303,53.2174,107.3493,89.2331,270.8811,5.5689e-05,5.99e-06,0.0,0 STARLINK-3306,1 50163U 21125H   24187.49817496  .00000599  00000-0  55689-4 0  9996,2 50163  53.2174 107.3493 0001303  89.2331 270.8811 15.08851781143839,6917.844,95.437,540.611,538.808,0.0
50163.0,STARLINK-3306,PAYLOAD,2024-07-06 03:51:14,15.08839213,0.0001364,53.217,104.3742,92.3371,267.7777,0.00011357,1.52e-05,0.0,0 STARLINK-3306,1 50163U 21125H   24188.16058540  .00001520  00000-0  11357-3 0  9996,2 50163  53.2170 104.3742 0001364  92.3371 267.7777 15.08839213143938,6917.883,95.438,540.691,538.804,0.0
50163.0,STARLINK-3306,PAYLOAD,2024-07-06 11:48:09,15.08846726,0.0001338,53.2169,102.8881,94.4735,265.641,0.00017687,2.529e-05,0.0,0 STARLINK-3306,1 50163U 21125H   24188.49178158  .00002529  00000-0  17687-3 0  9992,2 50163  53.2169 102.8881 0001338  94.4735 265.6410 15.08846726144468,6917.86,95.437,540.65,538.799,0.0
50163.0,STARLINK-3306,PAYLOAD,2024-07-07 03:42:01,15.08841656,0.0001635,53.2177,99.9149,100.5743,259.5433,4.9173e-05,4.95e-06,0.0,0 STARLINK-3306,1 50163U 21125H   24189.15418639  .00000495  00000-0  49173-4 0  9993,2 50163  53.2177  99.9149 0001635 100.5743 259.5433 15.08841656144563,6917.875,95.437,540.871,538.609,0.0
50163.0,STARLINK-3306,PAYLOAD,2024-07-07 21:11:16,15.08840724,0.0001706,53.2186,96.6426,106.8516,253.2663,0.0002855,4.259e-05,0.0,0 STARLINK-3306,1 50163U 21125H   24189.88282865  .00004259  00000-0  28550-3 0  9990,2 50163  53.2186  96.6426 0001706 106.8516 253.2663 15.08840724144191,6917.878,95.438,540.923,538.563,0.0
50163.0,STARLINK-3306,PAYLOAD,2024-07-08 03:32:48,15.08844662,0.0001478,53.2177,95.452,105.6767,254.4388,0.0001782,2.55e-05,0.0,0 STARLINK-3306,1 50163U 21125H   24190.14778577  .00002550  00000-0  17820-3 0  9991,2 50163  53.2177  95.4520 0001478 105.6767 254.4388 15.08844662144714,6917.866,95.437,540.754,538.709,0.0
50163.0,STARLINK-3306,PAYLOAD,2024-07-08 22:37:26,15.08840161,0.000146,53.2173,91.8835,104.6647,255.4507,0.00013978,1.937e-05,0.0,0 STARLINK-3306,1 50163U 21125H   24190.94266799  .00001937  00000-0  13978-3 0  9995,2 50163  53.2173  91.8835 0001460 104.6647 255.4507 15.08840161144833,6917.88,95.438,540.755,538.735,0.0
50163.0,STARLINK-3306,PAYLOAD,2024-07-09 03:23:35,15.08840868,0.0001331,53.2169,90.992,99.3604,260.7539,7.2876e-05,8.72e-06,0.0,0 STARLINK-3306,1 50163U 21125H   24191.14138724  .00000872  00000-0  72876-4 0  9994,2 50163  53.2169  90.9920 0001331  99.3604 260.7539 15.08840868144381,6917.878,95.437,540.664,538.822,0.0
